NORAD_CAT_ID,OBJECT_NAME,OBJECT_TYPE,EPOCH,MEAN_MOTION,ECCENTRICITY,INCLINATION,RA_OF_ASC_NODE,ARG_OF_PERICENTER,MEAN_ANOMALY,BSTAR,MEAN_MOTION_DOT,MEAN_MOTION_DDOT,TLE_LINE0,TLE_LINE1,TLE_LINE2,SEMIMAJOR_AXIS,PERIOD,APOGEE,PERIGEE,DECAYED
52331.0,STARLINK-3889,PAYLOAD,2024-07-17 12:17:58,15.0883101,0.0001448,53.2179,23.4234,78.5965,281.519,-4.5664e-06,-3.61e-06,0.0,0 STARLINK-3889,1 52331U 22045A   24199.51248284 -.00000361  00000-0 -45664-5 0  9998,2 52331  53.2179  23.4234 0001448  78.5965 281.5190 15.08831010125032,6917.908,95.438,540.775,538.771,0.0
52331.0,STARLINK-3889,PAYLOAD,2024-07-17 18:39:30,15.08839684,0.0001473,53.2174,22.2325,83.4506,276.6653,0.0001039,1.366e-05,0.0,0 STARLINK-3889,1 52331U 22045A   24199.77744029  .00001366  00000-0  10390-3 0  9994,2 52331  53.2174  22.2325 0001473  83.4506 276.6653 15.08839684125077,6917.881,95.438,540.765,538.727,0.0
52331.0,STARLINK-3889,PAYLOAD,2024-07-18 12:08:45,15.08833094,0.0001542,53.2177,18.9636,93.1868,266.93,8.136e-05,1.007e-05,0.0,0 STARLINK-3889,1 52331U 22045A   24200.50608566  .00001007  00000-0  81360-4 0  9991,2 52331  53.2177  18.9636 0001542  93.1868 266.9300 15.08833094125185,6917.901,95.438,540.833,538.7,0.0
52331.0,STARLINK-3889,PAYLOAD,2024-07-18 18:30:18,15.08831516,0.0001481,53.2171,17.7729,88.1227,271.9934,2.5041e-05,1.11e-06,0.0,0 STARLINK-3889,1 52331U 22045A   24200.77104866  .00000111  00000-0  25041-4 0  9993,2 52331  53.2171  17.7729 0001481  88.1227 271.9934 15.08831516125225,6917.906,95.438,540.796,538.747,0.0
52331.0,STARLINK-3889,PAYLOAD,2024-07-19 18:21:05,15.08864101,0.0001269,53.2173,13.3128,80.9651,279.1485,0.0010497,0.00016468,0.0,0 STARLINK-3889,1 52331U 22045A   24201.76464322  .00016468  00000-0  10497-2 0  9998,2 52331  53.2173  13.3128 0001269  80.9651 279.1485 15.08864101125370,6917.807,95.436,540.55,538.794,0.0
52331.0,STARLINK-3889,PAYLOAD,2024-07-20 03:53:23,15.088684,8.22e-05,53.2156,11.5262,43.8045,316.3012,0.00050049,7.693e-05,0.0,0 STARLINK-3889,1 52331U 22045A   24202.16207930  .00007693  00000-0  50049-3 0  9991,2 52331  53.2156  11.5262 0000822  43.8045 316.3012 15.08868400125432,6917.794,95.436,540.227,539.09,0.0
52331.0,STARLINK-3889,PAYLOAD,2024-07-20 11:50:19,15.08853867,0.0001893,53.2177,10.0421,83.5793,276.5415,0.00032891,4.952e-05,0.0,0 STARLINK-3889,1 52331U 22045A   24202.49328269  .00004952  00000-0  32891-3 0  9996,2 52331  53.2177  10.0421 0001893  83.5793 276.5415 15.08853867125486,6917.838,95.437,541.013,538.393,0.0
52331.0,STARLINK-3889,PAYLOAD,2024-07-20 15:01:05,15.0885655,0.0001973,53.2178,9.4474,129.6335,230.4832,0.00037485,5.685e-05,0.0,0 STARLINK-3889,1 52331U 22045A   24202.62575866  .00005685  00000-0  37485-3 0  9996,2 52331  53.2178   9.4474 0001973 129.6335 230.4832 15.08856550125507,6917.83,95.437,541.06,538.33,0.0
52331.0,STARLINK-3889,PAYLOAD,2024-07-20 18:11:52,15.08849413,9.69e-05,53.2178,8.8523,91.6372,268.4731,0.0016527,0.00026119,0.0,0 STARLINK-3889,1 52331U 22045A   24202.75824179  .00026119  00000-0  16527-2 0  9992,2 52331  53.2178   8.8523 0000969  91.6372 268.4731 15.08849413125529,6917.852,95.437,540.387,539.046,0.0
52331.0,STARLINK-3889,PAYLOAD,2024-07-21 03:44:10,15.08853638,6.74e-05,53.2167,7.0663,61.4905,298.6155,0.0011004,0.00017275,0.0,0 STARLINK-3889,1 52331U 22045A   24203.15567981  .00017275  00000-0  11004-2 0  9990,2 52331  53.2167   7.0663 0000674  61.4905 298.6155 15.08853638125588,6917.839,95.437,540.17,539.237,0.0
52331.0,STARLINK-3889,PAYLOAD,2024-07-21 10:05:43,15.08845776,0.0001738,53.2181,5.8796,102.3736,257.7451,0.00070017,0.00010874,0.0,0 STARLINK-3889,1 52331U 22045A   24203.42064400  .00010874  00000-0  70017-3 0  9996,2 52331  53.2181   5.8796 0001738 102.3736 257.7451 15.08845776125620,6917.863,95.437,540.93,538.525,0.0
52331.0,STARLINK-3889,PAYLOAD,2024-07-21 16:27:16,15.08840644,0.0001066,53.2175,4.6898,99.5619,260.5493,0.00048851,7.495e-05,0.0,0 STARLINK-3889,1 52331U 22045A   24203.68560515  .00007495  00000-0  48851-3 0  9998,2 52331  53.2175   4.6898 0001066  99.5619 260.5493 15.08840644125665,6917.878,95.438,540.481,539.006,0.0
52331.0,STARLINK-3889,PAYLOAD,2024-07-22 09:56:31,15.08845046,0.0001235,53.2175,1.4197,96.9616,263.1516,0.00075878,0.0001181,0.0,0 STARLINK-3889,1 52331U 22045A   24204.41424841  .00011810  00000-0  75878-3 0  9996,2 52331  53.2175   1.4197 0001235  96.9616 263.1516 15.08845046125776,6917.865,95.437,540.584,538.876,0.0
52331.0,STARLINK-3889,PAYLOAD,2024-07-23 19:19:36,15.08851018,0.0001151,53.2168,355.1735,97.3626,262.7497,0.00043441,6.635e-05,0.0,0 STARLINK-3889,1 52331U 22045A   24205.80528533  .00006635  00000-0  43441-3 0  9993,2 52331  53.2168 355.1735 0001151  97.3626 262.7497 15.08851018125980,6917.847,95.437,540.508,538.915,0.0
52331.0,STARLINK-3889,PAYLOAD,2024-07-25 19:01:10,15.08842071,0.0001257,53.218,346.2546,95.3365,264.7771,0.00024452,3.606e-05,0.0,0 STARLINK-3889,1 52331U 22045A   24207.79248814  .00003606  00000-0  24452-3 0  9990,2 52331  53.2180 346.2546 0001257  95.3365 264.7771 15.08842071126280,6917.874,95.437,540.609,538.869,0.0
52331.0,STARLINK-3889,PAYLOAD,2024-07-26 14:05:48,15.08810287,0.0001846,53.2178,342.6868,73.7186,286.4009,0.0014357,0.00022616,0.0,0 STARLINK-3889,1 52331U 22045A   24208.58737109  .00022616  00000-0  14357-2 0  9992,2 52331  53.2178 342.6868 0001846  73.7186 286.4009 15.08810287126402,6917.971,95.439,541.113,538.559,0.0
52331.0,STARLINK-3889,PAYLOAD,2024-07-26 15:41:11,15.0885245,0.0001404,53.2173,342.3877,86.6305,273.4847,0.00042164,6.431e-05,0.0,0 STARLINK-3889,1 52331U 22045A   24208.65360487  .00006431  00000-0  42164-3 0  9996,2 52331  53.2173 342.3877 0001404  86.6305 273.4847 15.08852450126415,6917.842,95.437,540.679,538.736,0.0
52331.0,STARLINK-3889,PAYLOAD,2024-07-27 10:45:49,15.08834636,9.05e-05,53.215,338.8166,77.6409,282.4685,-6.3697e-07,-2.98e-06,0.0,0 STARLINK-3889,1 52331U 22045A   24209.44849328 -.00000298  00000-0 -63697-6 0  9994,2 52331  53.2150 338.8166 0000905  77.6409 282.4685 15.08834636126530,6917.897,95.438,540.388,539.136,0.0
52331.0,STARLINK-3889,PAYLOAD,2024-07-27 18:42:45,15.08834676,0.0001464,53.216,337.3318,84.8923,275.2236,5.5374e-07,-2.79e-06,0.0,0 STARLINK-3889,1 52331U 22045A   24209.77969477 -.00000279  00000-0  55374-6 0  9999,2 52331  53.2160 337.3318 0001464  84.8923 275.2236 15.08834676126587,6917.897,95.438,540.774,538.749,0.0
52331.0,STARLINK-3889,PAYLOAD,2024-07-28 12:11:59,15.0884864,0.0001256,53.2166,334.06,91.3793,268.7343,0.00030245,4.53e-05,0.0,0 STARLINK-3889,1 52331U 22045A   24210.50833011  .00004530  00000-0  30245-3 0  9996,2 52331  53.2166 334.0600 0001256  91.3793 268.7343 15.08848640126692,6917.854,95.437,540.588,538.85,0.0
52331.0,STARLINK-3889,PAYLOAD,2024-07-28 18:33:31,15.08860874,0.0001571,53.2177,332.8716,97.5562,262.5609,0.00094766,0.00014835,0.0,0 STARLINK-3889,1 52331U 22045A   24210.77328573  .00014835  00000-0  94766-3 0  9994,2 52331  53.2177 332.8716 0001571  97.5562 262.5609 15.08860874126735,6917.817,95.436,540.768,538.595,0.0
52331.0,STARLINK-3889,PAYLOAD,2024-07-29 00:55:04,15.08843013,0.0001757,53.2162,331.6799,86.0535,274.0658,0.00013014,1.784e-05,0.0,0 STARLINK-3889,1 52331U 22045A   24211.03825130  .00001784  00000-0  13014-3 0  9991,2 52331  53.2162 331.6799 0001757  86.0535 274.0658 15.08843013126778,6917.871,95.437,540.952,538.521,0.0
52331.0,STARLINK-3889,PAYLOAD,2024-07-29 18:24:18,15.08853338,0.0001505,53.2165,328.4103,88.3003,271.8161,0.00027724,4.129e-05,0.0,0 STARLINK-3889,1 52331U 22045A   24211.76688540  .00004129  00000-0  27724-3 0  9992,2 52331  53.2165 328.4103 0001505  88.3003 271.8161 15.08853338126887,6917.84,95.437,540.746,538.663,0.0
52331.0,STARLINK-3889,PAYLOAD,2024-07-30 00:45:51,15.0884268,0.0002039,53.2189,327.22,77.9928,282.1293,3.0587e-05,1.99e-06,0.0,0 STARLINK-3889,1 52331U 22045A   24212.03184836  .00000199  00000-0  30587-4 0  9997,2 52331  53.2189 327.2200 0002039  77.9928 282.1293 15.08842680126925,6917.872,95.437,541.148,538.327,0.0
52331.0,STARLINK-3889,PAYLOAD,2024-07-30 16:39:43,15.08836158,0.0002092,53.2175,324.2473,77.6584,282.4643,0.00030417,4.556e-05,0.0,0 STARLINK-3889,1 52331U 22045A   24212.69425420  .00004556  00000-0  30417-3 0  9998,2 52331  53.2175 324.2473 0002092  77.6584 282.4643 15.08836158127020,6917.892,95.438,541.204,538.31,0.0
52331.0,STARLINK-3889,PAYLOAD,2024-07-31 14:55:09,15.0880698,0.0001684,53.2187,320.084,72.0343,288.0833,-0.00024778,-4.226e-05,0.0,0 STARLINK-3889,1 52331U 22045A   24213.62163510 -.00004226  00000-0 -24778-3 0  9990,2 52331  53.2187 320.0840 0001684  72.0343 288.0833 15.08806980127161,6917.981,95.44,541.011,538.681,0.0
52331.0,STARLINK-3889,PAYLOAD,2024-08-01 00:27:27,15.08826838,0.0001401,53.2188,318.2999,85.2667,274.8485,7.6133e-05,9.24e-06,0.0,0 STARLINK-3889,1 52331U 22045A   24214.01907111  .00000924  00000-0  76133-4 0  9999,2 52331  53.2188 318.2999 0001401  85.2667 274.8485 15.08826838127225,6917.921,95.438,540.755,538.816,0.0
52331.0,STARLINK-3889,PAYLOAD,2024-08-01 13:10:31,15.08855705,0.0001224,53.2173,315.9206,82.3103,277.8029,0.00046907,7.188e-05,0.0,0 STARLINK-3889,1 52331U 22045A   24214.54897614  .00007188  00000-0  46907-3 0  9997,2 52331  53.2173 315.9206 0001224  82.3103 277.8029 15.08855705127301,6917.832,95.437,540.544,538.851,0.0
52331.0,STARLINK-3889,PAYLOAD,2024-08-01 16:21:17,15.08860686,0.0001258,53.2167,315.3206,119.7531,240.3587,0.0006366,9.864e-05,0.0,0 STARLINK-3889,1 52331U 22045A   24214.68145018  .00009864  00000-0  63660-3 0  9994,2 52331  53.2167 315.3206 0001258 119.7531 240.3587 15.08860686127325,6917.817,95.436,540.552,538.812,0.0
52331.0,STARLINK-3889,PAYLOAD,2024-08-02 00:18:13,15.08841369,0.0001823,53.2165,313.8394,100.8355,259.2842,0.0002885,4.307e-05,0.0,0 STARLINK-3889,1 52331U 22045A   24215.01266096  .00004307  00000-0  28850-3 0  9991,2 52331  53.2165 313.8394 0001823 100.8355 259.2842 15.08841369127372,6917.876,95.437,541.002,538.48,0.0
